{"type":"FeatureCollection","crs":{"type":"name","properties":{"name":"EPSG:4326"}},"features":[{"type":"Feature","id":1,"geometry":{"type":"LineString","coordinates":[[-98.5517873916012,29.4477603763259],[-98.551799129887,29.4476191366307],[-98.5518894626753,29.4468325177199],[-98.5520274259367,29.4459292460141],[-98.552138976932,29.4451742101683],[-98.5522031274231,29.4450259803504],[-98.5522193761499,29.4449029623839],[-98.5521915247829,29.4447589877728],[-98.5522680316007,29.4441226018219],[-98.5525132725716,29.4422862912077],[-98.5525431676059,29.4421535036876],[-98.5525619298189,29.4420361820844],[-98.552974192754,29.4392813189055],[-98.5530144570416,29.4389376246393],[-98.552973013266,29.4388029723681],[-98.5530670417234,29.4380865893664],[-98.553181134951,29.4372175664854],[-98.5532740485991,29.4365113529334],[-98.5533475424675,29.436407836317],[-98.5535042535688,29.4352202314984],[-98.5535758007879,29.4346780145114],[-98.5537262811744,29.4331264294329],[-98.553891042079,29.4323797558412],[-98.5539322621741,29.4316187458839],[-98.554099497039,29.4307565542248],[-98.5541413225986,29.4305857658558],[-98.5542139666607,29.4301005081606],[-98.5542168727107,29.4300336769194],[-98.5542284942155,29.4299842789344],[-98.5542295650073,29.4299194012552],[-98.5542963583419,29.4293370024841],[-98.554393491377,29.4285973512776],[-98.5544812388139,29.4278625151136],[-98.5546076560289,29.4269670466715],[-98.5546735267938,29.4264488466324],[-98.5546824290982,29.4263883717281],[-98.5547157521037,29.426130647237],[-98.5548327945004,29.4252227713936],[-98.554864485267,29.4249787936298],[-98.5549506354993,29.4243114595772],[-98.5550531934604,29.4234665651905],[-98.5551055957842,29.4227032623779],[-98.5551240543666,29.422220598415],[-98.5551533987337,29.4218683223274],[-98.5553375246209,29.4202210780329],[-98.5554796533702,29.419078442301],[-98.555575948277,29.4183042659899],[-98.5555324168167,29.4181746474723],[-98.5556803549709,29.4169818261821],[-98.5557222505991,29.4167378818371],[-98.5557771304765,29.4163970339099],[-98.5558828729652,29.4161635353223],[-98.5558799327793,29.4160279122892],[-98.5559375049075,29.415799513991],[-98.5559989487747,29.4154636959926],[-98.5562233685939,29.4136687867136],[-98.5562984785314,29.4135851885607],[-98.5564120058204,29.4127992176382],[-98.5565208987008,29.4120210596988],[-98.5566151113129,29.4112321092952],[-98.5567268761073,29.4103565563791],[-98.5567798803023,29.4094077889655],[-98.556806505469,29.4086467039568],[-98.556798174493,29.4084359177952],[-98.556806209025,29.4082805263529],[-98.5568224281074,29.4081237307566],[-98.5568462577169,29.4079096630031],[-98.5568365810647,29.407373786162],[-98.5568479860756,29.4072582759408],[-98.5569938913423,29.4063047677171],[-98.5570283408351,29.4052109895789]]},"properties":{"fid":1,"bicycle_hin_id":1,"Name":"S General Mcmullen","Owner":"San Antonio","Miles":2.954,"weighted_total":535,"weighted_total_rank":1,"ka_total":34,"ka_total_rank":1,"current_3yr_weighted":122,"previous_3yr_weighted":73.333333333333329,"pct_change":66.4,"trend":"Increasing","weighted_per_mi_yr":36.222071767095464,"ka_per_mi_yr":2.3019634394041977,"Shape__Length":5481.788945058508}},{"type":"Feature","id":2,"geometry":{"type":"MultiLineString","coordinates":[[[-98.7208183228955,29.5003010302313],[-98.7222409695396,29.5008519682107]],[[-98.7190462253177,29.4996482736016],[-98.7208183228955,29.5003010302313]],[[-98.7222409695396,29.5008519682107],[-98.724551671809,29.5017292462778],[-98.7267070445859,29.502512659911],[-98.7279484489349,29.502967597395]],[[-98.7279484489349,29.502967597395],[-98.7289142267986,29.5033325843346],[-98.7300699112082,29.5038134543801],[-98.7310144232542,29.5042010712207],[-98.7316872847582,29.5044767543577],[-98.7327260758915,29.5048837999186],[-98.7344566614217,29.5055493546634],[-98.7353070947045,29.5058563119511]],[[-98.7096165442033,29.4960143745503],[-98.7103709763283,29.4963095941954],[-98.7113349512732,29.4967118319715],[-98.7131153744371,29.4974430904628],[-98.7135173417806,29.4975958997169],[-98.7142490671903,29.4978683592021],[-98.715265789412,29.4982493670008],[-98.7155186013841,29.4983427250456]],[[-98.7155186013841,29.4983427250456],[-98.7176188391621,29.4991179178118],[-98.7190462253177,29.4996482736016]]]},"properties":{"fid":2,"bicycle_hin_id":7,"Name":"Culebra Rd","Owner":null,"Miles":1.69,"weighted_total":299,"weighted_total_rank":2,"ka_total":14,"ka_total_rank":3,"current_3yr_weighted":74.333333333333329,"previous_3yr_weighted":33.666666666666664,"pct_change":120.8,"trend":"Increasing","weighted_per_mi_yr":35.384615384615387,"ka_per_mi_yr":1.6568047337278107,"Shape__Length":3125.0856915771415}},{"type":"Feature","id":3,"geometry":{"type":"MultiLineString","coordinates":[[[-98.4168248213187,29.5035861465045],[-98.4158310609339,29.5043229899381],[-98.415254831205,29.5047529417979],[-98.4124477738086,29.5068541723577],[-98.4094014725941,29.5091220497358]],[[-98.4082901946039,29.5099091962243],[-98.4077226318208,29.5103247147018]],[[-98.4094014725941,29.5091220497358],[-98.4082901946039,29.5099091962243]]]},"properties":{"fid":3,"bicycle_hin_id":3,"Name":"Austin Hwy","Owner":null,"Miles":0.718,"weighted_total":220,"weighted_total_rank":3,"ka_total":15,"ka_total_rank":2,"current_3yr_weighted":38.666666666666664,"previous_3yr_weighted":48.666666666666664,"pct_change":-20.5,"trend":"Decreasing","weighted_per_mi_yr":61.281337047353759,"ka_per_mi_yr":4.1782729805013927,"Shape__Length":1330.3107539274663}},{"type":"Feature","id":4,"geometry":{"type":"MultiLineString","coordinates":[[[-98.5439336285829,29.4487692690461],[-98.5440424109706,29.4488520145334]],[[-98.5440424109706,29.4488520145334],[-98.5440526643412,29.448844953959],[-98.5440659207799,29.4488408002197],[-98.5440816152462,29.4488397582646],[-98.5440991323943,29.4488418695533],[-98.5441177796229,29.4488470480381],[-98.5441368194154,29.4488550918985],[-98.544155503475,29.4488656827587],[-98.5441730942849,29.4488784044619],[-98.5441888956507,29.4488927524574],[-98.5442022868366,29.4489081627435],[-98.544212738735,29.4489240251666],[-98.5442198399173,29.4489397170571],[-98.5442233074143,29.4489546180929],[-98.5442230082753,29.4489681408064],[-98.5442189514835,29.448979750141],[-98.5442112924474,29.4489889955227]],[[-98.5442112924474,29.4489889955227],[-98.5442007929383,29.4489953137344],[-98.5441876110598,29.4489988620081],[-98.5441722336988,29.448999504233],[-98.5441552267939,29.4489972192888],[-98.5441372128775,29.448992089311],[-98.5441188522114,29.4489843028208],[-98.544100818532,29.4489741469026],[-98.5440837738978,29.4489619915586],[-98.5440680452955,29.4489479869797],[-98.5440545975157,29.4489329005502],[-98.5440439470897,29.4489173087863],[-98.5440364982594,29.4489018069786],[-98.5440325375873,29.4488869872888],[-98.5440322159904,29.4488734168473],[-98.5440355442486,29.448861613503],[-98.5440424109706,29.4488520145334]],[[-98.5442112924474,29.4489889955227],[-98.5445059281825,29.4492160636811],[-98.544572476277,29.4492664817439],[-98.544655462643,29.4493300195908],[-98.5453929579317,29.4498942644337],[-98.5460529483743,29.4503998000914],[-98.5461281095158,29.4504571223637],[-98.54649686255,29.4507395850534],[-98.5468585709958,29.4510165228365],[-98.5477704993497,29.4517559849026],[-98.5481360678563,29.4520501210135],[-98.5484641649374,29.4522911872237],[-98.5485189639664,29.4523346889203],[-98.5491930175348,29.4528650079342],[-98.5494850400707,29.4530928856169],[-98.550664981688,29.4539913698009],[-98.5523180147614,29.4552180175034],[-98.5534087599592,29.4560446721051],[-98.5542974857276,29.456721443526]]]},"properties":{"fid":4,"bicycle_hin_id":11,"Name":"Bandera Rd","Owner":null,"Miles":0.852,"weighted_total":204,"weighted_total_rank":4,"ka_total":13,"ka_total_rank":4,"current_3yr_weighted":35,"previous_3yr_weighted":41.333333333333336,"pct_change":-15.299999999999999,"trend":"Decreasing","weighted_per_mi_yr":47.887323943661968,"ka_per_mi_yr":3.051643192488263,"Shape__Length":1576.5486755739275}},{"type":"Feature","id":5,"geometry":{"type":"MultiLineString","coordinates":[[[-98.481248843104,29.3555172983918],[-98.4749904332331,29.3532300403029],[-98.4746958693633,29.3531264341892],[-98.4744914029231,29.3530534341048],[-98.4742194909715,29.3529712307465]],[[-98.4848285127302,29.3566120202676],[-98.4842694210603,29.3565108518136],[-98.4840334524998,29.3564569975182],[-98.483729329657,29.3563774378312],[-98.4834792862926,29.3563132147173],[-98.4828532288116,29.356107270791],[-98.481248843104,29.3555172983918]],[[-98.4862218859742,29.3567170877501],[-98.4859589922096,29.3567105751086],[-98.4856019666814,29.356694073492],[-98.4854827297005,29.3566819251185],[-98.4848285127302,29.3566120202676]]]},"properties":{"fid":5,"bicycle_hin_id":8,"Name":"Se Military Dr","Owner":null,"Miles":0.773,"weighted_total":172,"weighted_total_rank":5,"ka_total":10,"ka_total_rank":5,"current_3yr_weighted":35.666666666666664,"previous_3yr_weighted":28.333333333333332,"pct_change":25.900000000000002,"trend":"Increasing","weighted_per_mi_yr":44.5019404915912,"ka_per_mi_yr":2.5873221216041395,"Shape__Length":1426.6751434820246}},{"type":"Feature","id":6,"geometry":{"type":"MultiLineString","coordinates":[[[-98.3822970879217,29.5459930516851],[-98.3802187169342,29.5470219970482],[-98.3790844232081,29.5475884956],[-98.3782155115799,29.5480229509495],[-98.3779530382269,29.548120171269],[-98.3755129372341,29.5488721222103],[-98.3753177333229,29.548918984984],[-98.3751955983769,29.5489423722094],[-98.3750812599092,29.5489709570228],[-98.3749045541063,29.5490125346345],[-98.3747850188847,29.5490359218383],[-98.3746109119079,29.549069704995],[-98.3744821240389,29.549096418141],[-98.3741912747027,29.5491239119727]],[[-98.3710207014501,29.5482192170354],[-98.3711713084991,29.5484069372588],[-98.3713362508633,29.5485651610096],[-98.3715084902426,29.5486876670831],[-98.3716941657237,29.5487992346781],[-98.3719191227354,29.5489164866057],[-98.3721913652671,29.5490167710112],[-98.3724700406346,29.5490937103319],[-98.3726955024995,29.5491291447243],[-98.3729085209012,29.5491418319577],[-98.3733205484776,29.5491437637618],[-98.3739882500586,29.5491269511262],[-98.3741912747027,29.5491239119727]],[[-98.3741912747027,29.5491239119727],[-98.3741982213748,29.5491238088181]]]},"properties":{"fid":6,"bicycle_hin_id":15,"Name":"Wurzbach Pkwy","Owner":null,"Miles":0.75,"weighted_total":155,"weighted_total_rank":6,"ka_total":7,"ka_total_rank":7,"current_3yr_weighted":41.666666666666664,"previous_3yr_weighted":17.333333333333332,"pct_change":140.39999999999998,"trend":"Increasing","weighted_per_mi_yr":41.333333333333329,"ka_per_mi_yr":1.8666666666666667,"Shape__Length":1388.2202794430314}},{"type":"Feature","id":7,"geometry":{"type":"MultiLineString","coordinates":[[[-98.5125998857214,29.5515884361031],[-98.5138478612467,29.5532341431694],[-98.5141103363963,29.5536008703402]],[[-98.5064978698465,29.5390307475128],[-98.5064629065173,29.5399216780468]],[[-98.5103215030393,29.5485370449687],[-98.5106440745831,29.5489926921974],[-98.5112745769282,29.5498434268441],[-98.5125998857214,29.5515884361031]],[[-98.5064891463068,29.5377429427514],[-98.5065171252346,29.5382992697431],[-98.5065162026648,29.5384904050325],[-98.5065117407328,29.5386003957612]],[[-98.5069849049525,29.5431997554225],[-98.5070788938841,29.5434386806771],[-98.5071822127181,29.5436996402191],[-98.5072538344974,29.5438484142252]],[[-98.5088055456917,29.5463925357275],[-98.509174162182,29.5469177985179],[-98.5095623781152,29.5474561945975],[-98.5103215030393,29.5485370449687]],[[-98.5064629065173,29.5399216780468],[-98.5064528840137,29.5402062844447],[-98.5064446401744,29.5406112183698],[-98.5064510352808,29.541078085895],[-98.5064607990697,29.5411730026745]],[[-98.5064607990697,29.5411730026745],[-98.506484605323,29.5414536080056],[-98.5065276373201,29.5416607188807],[-98.5065698500536,29.5418747005463],[-98.5066216037937,29.5420667168934],[-98.5067250061711,29.5424727500074],[-98.5069056969007,29.5429938879753],[-98.5069849049525,29.5431997554225]],[[-98.5065117407328,29.5386003957612],[-98.5065055198995,29.5389118311333],[-98.5064978698465,29.5390307475128]],[[-98.5072538344974,29.5438484142252],[-98.5074506392065,29.5442898551714],[-98.5075955105124,29.5445764069533],[-98.5077288285854,29.5448127257524],[-98.5079028080014,29.5450966337824],[-98.5080886038567,29.5453757730637],[-98.508342299771,29.5457610432751],[-98.5088055456917,29.5463925357275]]]},"properties":{"fid":7,"bicycle_hin_id":16,"Name":"Blanco Rd","Owner":null,"Miles":1.217,"weighted_total":140,"weighted_total_rank":7,"ka_total":7,"ka_total_rank":7,"current_3yr_weighted":23,"previous_3yr_weighted":34,"pct_change":-32.4,"trend":"Decreasing","weighted_per_mi_yr":23.007395234182415,"ka_per_mi_yr":1.1503697617091206,"Shape__Length":2258.7999939385486}},{"type":"Feature","id":8,"geometry":{"type":"MultiLineString","coordinates":[[[-98.599657049125,29.5630986877527],[-98.6007691688366,29.5630731347308]],[[-98.5935409153271,29.5631043081196],[-98.5983885075696,29.5631038236726]],[[-98.5916157493165,29.5630970695433],[-98.592703040492,29.5631299103598],[-98.5929029884062,29.5631142853836],[-98.5935409153271,29.5631043081196]],[[-98.6012811537513,29.5630691614826],[-98.6022516522618,29.5630596749123],[-98.603071126905,29.5630572964327]],[[-98.5983885075696,29.5631038236726],[-98.599657049125,29.5630986877527]],[[-98.6007691688366,29.5630731347308],[-98.6012811537513,29.5630691614826]],[[-98.603071126905,29.5630572964327],[-98.606097459469,29.5630236140606]]]},"properties":{"fid":8,"bicycle_hin_id":13,"Name":"De Zavala Rd","Owner":"San Antonio","Miles":0.872,"weighted_total":133,"weighted_total_rank":8,"ka_total":7,"ka_total_rank":7,"current_3yr_weighted":26.333333333333332,"previous_3yr_weighted":19.666666666666668,"pct_change":33.900000000000006,"trend":"Increasing","weighted_per_mi_yr":30.504587155963304,"ka_per_mi_yr":1.6055045871559632,"Shape__Length":1612.3525746640103}},{"type":"Feature","id":9,"geometry":{"type":"MultiLineString","coordinates":[[[-98.6524556898492,29.4725529250481],[-98.6531049346444,29.4734344366681]],[[-98.6596151692389,29.4758731107997],[-98.659751647585,29.4759117482619]],[[-98.659751647585,29.4759117482619],[-98.6600208259633,29.4760135033101]],[[-98.6600208259633,29.4760135033101],[-98.6602899702056,29.4761262591863]],[[-98.6602899702056,29.4761262591863],[-98.6604562905855,29.4762050620042]],[[-98.6604562905855,29.4762050620042],[-98.6607120382519,29.476329470794]],[[-98.6607120382519,29.476329470794],[-98.6609959849335,29.4764807650275]],[[-98.6609959849335,29.4764807650275],[-98.6611292949216,29.4765622343082]],[[-98.6531049346444,29.4734344366681],[-98.6533014357229,29.4736489395397],[-98.6537571600497,29.4740214014103],[-98.654192223125,29.4743257381708],[-98.6546164318566,29.4745874163304],[-98.654735647278,29.4746523546089]],[[-98.6518297617256,29.4715799337476],[-98.6524556898492,29.4725529250481]],[[-98.6502412582322,29.4695569108837],[-98.6508952272675,29.4702832395785]],[[-98.6508952272675,29.4702832395785],[-98.6510255189163,29.4704445276756]],[[-98.6510255189163,29.4704445276756],[-98.6513546903825,29.4709191102874]],[[-98.654735647278,29.4746523546089],[-98.6558737714205,29.4750988764863]],[[-98.6558737714205,29.4750988764863],[-98.6560776018534,29.4751542891225]],[[-98.6560776018534,29.4751542891225],[-98.6564662642492,29.4752398581667]],[[-98.6564662642492,29.4752398581667],[-98.6565902039107,29.4752636370215]],[[-98.6513546903825,29.4709191102874],[-98.6516519303336,29.4713252192429]],[[-98.6516519303336,29.4713252192429],[-98.6518297617256,29.4715799337476]],[[-98.6565902039107,29.4752636370215],[-98.6580734392258,29.4755566054122]],[[-98.6580734392258,29.4755566054122],[-98.6596151692389,29.4758731107997]]]},"properties":{"fid":9,"bicycle_hin_id":10,"Name":"Culebra Rd","Owner":"San Antonio","Miles":0.858,"weighted_total":132,"weighted_total_rank":9,"ka_total":8,"ka_total_rank":6,"current_3yr_weighted":25,"previous_3yr_weighted":20.333333333333332,"pct_change":23,"trend":"Increasing","weighted_per_mi_yr":30.769230769230766,"ka_per_mi_yr":1.8648018648018649,"Shape__Length":1588.5183665406087}},{"type":"Feature","id":10,"geometry":{"type":"MultiLineString","coordinates":[[[-98.5038845260562,29.357793933745],[-98.5038992710033,29.3566938793185]],[[-98.5040921707358,29.3677561915366],[-98.5040771751588,29.3672865278806]],[[-98.5040399543633,29.3665438166518],[-98.5040114445312,29.3657853232501]],[[-98.5038834058571,29.3630497024452],[-98.5038741981254,29.3617095978357]],[[-98.5042020670344,29.3701878387821],[-98.5041760473322,29.3695296975342]],[[-98.5041760473322,29.3695296975342],[-98.5041440223924,29.3687196676615]],[[-98.5041440223924,29.3687196676615],[-98.504133057556,29.3683902812426]],[[-98.5038695170045,29.3589483061089],[-98.5038845260562,29.357793933745]],[[-98.5039457183951,29.3642834310226],[-98.5038834058571,29.3630497024452]],[[-98.5038592411759,29.3600978816778],[-98.5038689528625,29.3593890356404]],[[-98.5038698907036,29.3604918982925],[-98.5038592411759,29.3600978816778]],[[-98.5040086310077,29.3657179314561],[-98.5039457183951,29.3642834310226]],[[-98.5038689528625,29.3593890356404],[-98.5038695170045,29.3589483061089]],[[-98.504133057556,29.3683902812426],[-98.5040921707358,29.3677561915366]],[[-98.5038741981254,29.3617095978357],[-98.5038698907036,29.3604918982925]],[[-98.5040771751588,29.3672865278806],[-98.5040399543633,29.3665438166518]]]},"properties":{"fid":10,"bicycle_hin_id":6,"Name":"Pleasanton Rd","Owner":"San Antonio","Miles":0.925,"weighted_total":110,"weighted_total_rank":10,"ka_total":5,"ka_total_rank":12,"current_3yr_weighted":27.333333333333332,"previous_3yr_weighted":23.666666666666668,"pct_change":15.5,"trend":"Increasing","weighted_per_mi_yr":23.783783783783782,"ka_per_mi_yr":1.0810810810810811,"Shape__Length":1715.7175909418456}},{"type":"Feature","id":11,"geometry":{"type":"MultiLineString","coordinates":[[[-98.51439110394,29.3567556006439],[-98.5161363445858,29.3567518079986],[-98.5162822471576,29.3567446799549]],[[-98.5162822471576,29.3567446799549],[-98.5164584714635,29.356749470871],[-98.5179403898484,29.3567321377598]]]},"properties":{"fid":11,"bicycle_hin_id":5,"Name":"Sw Military Dr","Owner":null,"Miles":0.214,"weighted_total":102,"weighted_total_rank":11,"ka_total":7,"ka_total_rank":7,"current_3yr_weighted":23.333333333333332,"previous_3yr_weighted":12,"pct_change":94.399999999999991,"trend":"Increasing","weighted_per_mi_yr":95.327102803738313,"ka_per_mi_yr":6.5420560747663554,"Shape__Length":395.15519362824517}},{"type":"Feature","id":12,"geometry":{"type":"MultiLineString","coordinates":[[[-98.6096739454659,29.4110831851205],[-98.6101693447855,29.4108717091151]],[[-98.6101693447855,29.4108717091151],[-98.6104949912625,29.4107282715976]],[[-98.6104949912625,29.4107282715976],[-98.6107545953965,29.4106052684262]],[[-98.6107545953965,29.4106052684262],[-98.6110268064871,29.4104712985339]],[[-98.6110268064871,29.4104712985339],[-98.6114343317074,29.4102710296569]],[[-98.6114343317074,29.4102710296569],[-98.6117718916417,29.4100911825165]],[[-98.6117718916417,29.4100911825165],[-98.6121504390075,29.4098702011761]],[[-98.6121504390075,29.4098702011761],[-98.6140818195633,29.4087145055526]],[[-98.6027183468148,29.4140084066327],[-98.6064608226116,29.4124305344684]],[[-98.5968054173241,29.4165222852292],[-98.5996357554595,29.4152966285547]],[[-98.5996357554595,29.4152966285547],[-98.6003884915653,29.4149881051699],[-98.6008077155455,29.4148188443554],[-98.6027183468148,29.4140084066327]],[[-98.6086387152544,29.4115179278471],[-98.6095550516414,29.4111339382633],[-98.6096739454659,29.4110831851205]],[[-98.6064608226116,29.4124305344684],[-98.6086387152544,29.4115179278471]]]},"properties":{"fid":12,"bicycle_hin_id":14,"Name":"Historic Old Hwy 90","Owner":"San Antonio","Miles":1.174,"weighted_total":82,"weighted_total_rank":12,"ka_total":6,"ka_total_rank":11,"current_3yr_weighted":13.666666666666666,"previous_3yr_weighted":14.333333333333334,"pct_change":-4.7,"trend":"About the Same","weighted_per_mi_yr":13.969335604770018,"ka_per_mi_yr":1.0221465076660989,"Shape__Length":2169.7091900418241}},{"type":"Feature","id":13,"geometry":{"type":"LineString","coordinates":[[-98.577949718425,29.4730135153037],[-98.5784610511629,29.473249585162],[-98.5791174842769,29.4735500514887],[-98.5796938810925,29.473824824048],[-98.5801095136081,29.4740234582131],[-98.5808983116827,29.4744309022079],[-98.5814595269699,29.4747695626374],[-98.5822399635259,29.4753027947755],[-98.5830409041281,29.4758202722516],[-98.5837179670527,29.4762720427089],[-98.5849293461117,29.4769214222141]]},"properties":{"fid":13,"bicycle_hin_id":22,"Name":"Bandera Rd","Owner":null,"Miles":0.5,"weighted_total":82,"weighted_total_rank":12,"ka_total":5,"ka_total_rank":12,"current_3yr_weighted":21.666666666666668,"previous_3yr_weighted":6.333333333333333,"pct_change":242.1,"trend":"Increasing","weighted_per_mi_yr":32.8,"ka_per_mi_yr":2,"Shape__Length":925.838494462869}},{"type":"Feature","id":14,"geometry":{"type":"MultiLineString","coordinates":[[[-98.4942062290004,29.4406537890323],[-98.4941900045281,29.4417118810614]],[[-98.4941587198,29.4365976962379],[-98.4941772098235,29.4373066403292]],[[-98.4941900045281,29.4417118810614],[-98.4941963816683,29.4428058123011]],[[-98.4941864480979,29.4395701213268],[-98.4942062290004,29.4406537890323]],[[-98.4941838726279,29.4385016434735],[-98.4941864480979,29.4395701213268]],[[-98.4941772098235,29.4373066403292],[-98.4941838726279,29.4385016434735]]]},"properties":{"fid":14,"bicycle_hin_id":2,"Name":"N Main Ave","Owner":"San Antonio","Miles":0.428,"weighted_total":76,"weighted_total_rank":14,"ka_total":5,"ka_total_rank":12,"current_3yr_weighted":14.666666666666666,"previous_3yr_weighted":11,"pct_change":33.300000000000004,"trend":"Increasing","weighted_per_mi_yr":35.514018691588788,"ka_per_mi_yr":2.3364485981308412,"Shape__Length":793.60993599904123}},{"type":"Feature","id":15,"geometry":{"type":"LineString","coordinates":[[-98.4661955672755,29.5108102233972],[-98.4661974815854,29.5113472082998],[-98.4661894039343,29.5121419846627],[-98.4661416369174,29.5128602835872],[-98.4659936493558,29.5136531257502],[-98.4658341507822,29.5140911454628],[-98.4657497881972,29.5142901986537],[-98.465685264007,29.5144535774354],[-98.4653722217917,29.5150910596214],[-98.4648029665827,29.5161538321365],[-98.464620956228,29.516510486019],[-98.4641063850636,29.5172421487248],[-98.4640597041099,29.5172997161822],[-98.4639593209701,29.5174045088511],[-98.4625944836095,29.5187871937654],[-98.4623068493438,29.5190713695065]]},"properties":{"fid":15,"bicycle_hin_id":17,"Name":"Broadway","Owner":"San Antonio","Miles":0.636,"weighted_total":71,"weighted_total_rank":15,"ka_total":4,"ka_total_rank":15,"current_3yr_weighted":16.666666666666668,"previous_3yr_weighted":9.3333333333333339,"pct_change":78.600000000000009,"trend":"Increasing","weighted_per_mi_yr":22.327044025157232,"ka_per_mi_yr":1.2578616352201257,"Shape__Length":1179.5674759110966}},{"type":"Feature","id":16,"geometry":{"type":"MultiLineString","coordinates":[[[-98.5567052150308,29.4310086212813],[-98.5575876633721,29.4310933653752]],[[-98.5593918146359,29.4312677808048],[-98.5596045877974,29.4312856707937],[-98.5598369954362,29.4313036257173]],[[-98.5584881687489,29.4311802273135],[-98.5589584412917,29.4312257847751]],[[-98.5575876633721,29.4310933653752],[-98.5584881687489,29.4311802273135]],[[-98.5558235518171,29.4309245609225],[-98.5567052150308,29.4310086212813]],[[-98.5589584412917,29.4312257847751],[-98.5593918146359,29.4312677808048]]]},"properties":{"fid":16,"bicycle_hin_id":9,"Name":"W Commerce St","Owner":"San Antonio","Miles":0.243,"weighted_total":62,"weighted_total_rank":16,"ka_total":4,"ka_total_rank":15,"current_3yr_weighted":15.666666666666666,"previous_3yr_weighted":5,"pct_change":213.3,"trend":"Increasing","weighted_per_mi_yr":51.028806584362144,"ka_per_mi_yr":3.2921810699588478,"Shape__Length":449.40134092218238}},{"type":"Feature","id":17,"geometry":{"type":"LineString","coordinates":[[-98.3739441293034,29.5771401060751],[-98.3732211130605,29.5776819426741],[-98.3725732283146,29.5781560607892],[-98.3701465984578,29.5799590861678],[-98.3691977736002,29.5806318466455],[-98.3679132465244,29.5815299030844],[-98.3654144693738,29.5832713088611],[-98.3640832784122,29.584199360323],[-98.3619635624638,29.5856819241465]]},"properties":{"fid":17,"bicycle_hin_id":12,"Name":"Nacogdoches Rd","Owner":null,"Miles":0.931,"weighted_total":61,"weighted_total_rank":17,"ka_total":3,"ka_total_rank":17,"current_3yr_weighted":10,"previous_3yr_weighted":16,"pct_change":-37.5,"trend":"Decreasing","weighted_per_mi_yr":13.104189044038668,"ka_per_mi_yr":0.6444683136412459,"Shape__Length":1724.7484870223109}},{"type":"Feature","id":18,"geometry":{"type":"MultiLineString","coordinates":[[[-98.5413070265574,29.4294275079877],[-98.5425600155803,29.4295452510074]],[[-98.5438451930365,29.4296665303216],[-98.5441749259497,29.4296979083181],[-98.5447785686678,29.4297742239779],[-98.5450556423391,29.4298143585075]],[[-98.5425600155803,29.4295452510074],[-98.5436944638166,29.4296508894371],[-98.5438451930365,29.4296665303216]]]},"properties":{"fid":18,"bicycle_hin_id":4,"Name":"W Commerce St","Owner":"San Antonio","Miles":0.228,"weighted_total":46,"weighted_total_rank":18,"ka_total":2,"ka_total_rank":18,"current_3yr_weighted":13.333333333333334,"previous_3yr_weighted":2.3333333333333335,"pct_change":471.40000000000003,"trend":"Increasing","weighted_per_mi_yr":40.350877192982452,"ka_per_mi_yr":1.7543859649122804,"Shape__Length":420.28822833012254}},{"type":"Feature","id":19,"geometry":{"type":"LineString","coordinates":[[-98.5239371411382,29.4246432000142],[-98.5250597576639,29.4247441434605],[-98.5261148613045,29.4248393351385],[-98.5262027866079,29.4248472103306],[-98.5273395596842,29.4249447452978],[-98.5284841391203,29.4250532991585]]},"properties":{"fid":19,"bicycle_hin_id":20,"Name":"Saunders Ave","Owner":"San Antonio","Miles":0.276,"weighted_total":17,"weighted_total_rank":19,"ka_total":1,"ka_total_rank":19,"current_3yr_weighted":5.666666666666667,"previous_3yr_weighted":0,"pct_change":null,"trend":"Increasing","weighted_per_mi_yr":12.318840579710145,"ka_per_mi_yr":0.72463768115942018,"Shape__Length":508.87931313909803}},{"type":"Feature","id":20,"geometry":{"type":"LineString","coordinates":[[-98.5231442206948,29.421879128831],[-98.5232103366997,29.4213416926539],[-98.5232780193665,29.4208049492447],[-98.5233496321626,29.4202675324242],[-98.5234172726086,29.4197397270036]]},"properties":{"fid":20,"bicycle_hin_id":21,"Name":"S Navidad St","Owner":"San Antonio","Miles":0.148,"weighted_total":14,"weighted_total_rank":20,"ka_total":1,"ka_total_rank":19,"current_3yr_weighted":4.333333333333333,"previous_3yr_weighted":0.33333333333333331,"pct_change":1200,"trend":"Increasing","weighted_per_mi_yr":18.918918918918919,"ka_per_mi_yr":1.3513513513513513,"Shape__Length":275.10419699085219}},{"type":"Feature","id":21,"geometry":{"type":"MultiLineString","coordinates":[[[-98.4885866120264,29.4128569938751],[-98.4880676022862,29.4112736104185],[-98.487763449799,29.4103820501255],[-98.4874609502119,29.4094753693739],[-98.487450889979,29.4094457654371],[-98.4871770897686,29.4086107000164],[-98.4868794976779,29.4076669075106],[-98.4866561675151,29.4069475455633],[-98.4864898857628,29.406440172083]],[[-98.4895182036036,29.4156434475505],[-98.4894499451167,29.4154733583717],[-98.4885866003483,29.4128593805785]]]},"properties":{"fid":21,"bicycle_hin_id":19,"Name":"S St Marys","Owner":"San Antonio","Miles":0.659,"weighted_total":11,"weighted_total_rank":21,"ka_total":null,"ka_total_rank":null,"current_3yr_weighted":3.3333333333333335,"previous_3yr_weighted":5,"pct_change":-33.300000000000004,"trend":"Decreasing","weighted_per_mi_yr":3.3383915022761763,"ka_per_mi_yr":null,"Shape__Length":1223.2089803131394}},{"type":"Feature","id":22,"geometry":{"type":"MultiLineString","coordinates":[[[-98.5602688784753,29.4313270502805],[-98.5604157422445,29.4313295961562],[-98.5607558551908,29.4313238393788],[-98.560966390649,29.4313142176263],[-98.5611918570056,29.4313025827999]],[[-98.5598369954362,29.4313036257173],[-98.5599327926764,29.431309441957],[-98.5601024008902,29.4313196262437],[-98.5602688784753,29.4313270502805]]]},"properties":{"fid":22,"bicycle_hin_id":18,"Name":"Historic Old Hwy 90","Owner":"San Antonio","Miles":0.082,"weighted_total":4,"weighted_total_rank":22,"ka_total":null,"ka_total_rank":null,"current_3yr_weighted":0.66666666666666663,"previous_3yr_weighted":0.66666666666666663,"pct_change":0,"trend":"About the Same","weighted_per_mi_yr":9.75609756097561,"ka_per_mi_yr":null,"Shape__Length":151.00412327351279}}]}