{
"type": "FeatureCollection",
"name": "network_hotspot_areas_2021_present",
"crs": { "type": "name", "properties": { "name": "urn:ogc:def:crs:OGC:1.3:CRS84" } },
"features": [
{ "type": "Feature", "properties": { "cluster": 0, "crashes": 2, "deaths": 0, "serious_injuries": 2, "first_year": 2021, "last_year": 2026, "affected_bicyclists": 2 }, "geometry": { "type": "Polygon", "coordinates": [ [ [ -98.510475674714812, 29.406973000819438 ], [ -98.510344192687981, 29.407043166891615 ], [ -98.510205489126605, 29.407101710551999 ], [ -98.510060899856143, 29.407148067976141 ], [ -98.509911817392322, 29.407181792702659 ], [ -98.509759677528962, 29.407202559933435 ], [ -98.509605945508568, 29.407210169662118 ], [ -98.509452101909247, 29.407204548600383 ], [ -98.509299628383829, 29.407185750883947 ], [ -98.509149993388647, 29.407153957551092 ], [ -98.509004638039428, 29.407109474798968 ], [ -98.50886496223076, 29.407052731034305 ], [ -98.508732311152542, 29.406984272747231 ], [ -98.508607962333883, 29.40690475924746 ], [ -98.508493113338616, 29.4068149563142 ], [ -98.508388870231585, 29.406715728820341 ], [ -98.50829623692627, 29.40660803240262 ], [ -98.508216105516865, 29.406492904257291 ], [ -98.508149247687385, 29.406371453150658 ], [ -98.508096307280994, 29.406244848740265 ], [ -98.508057794100679, 29.406114310309839 ], [ -98.508034079001249, 29.40598109502637 ], [ -98.508025390319645, 29.405846485832459 ], [ -98.508031811677895, 29.405711779090709 ], [ -98.508053281179897, 29.405578272098836 ], [ -98.508089592009753, 29.405447250596147 ], [ -98.508140394425354, 29.405319976381406 ], [ -98.508205199128582, 29.405197675161329 ], [ -98.508283381979169, 29.40508152474689 ], [ -98.508374190006862, 29.404972643711076 ], [ -98.508476748663938, 29.404872080617036 ], [ -98.508590070248275, 29.40478080392079 ], [ -98.508713063415655, 29.404699692645096 ], [ -98.509813807312042, 29.404045328716141 ], [ -98.50994528610876, 29.403975162941173 ], [ -98.510083985883611, 29.403916619368779 ], [ -98.510228570916254, 29.403870261788569 ], [ -98.510377648815819, 29.403836536635318 ], [ -98.510529783928831, 29.403815768690194 ], [ -98.510683511163407, 29.403808157953193 ], [ -98.510837350096963, 29.403813777717474 ], [ -98.510989819231355, 29.403832573863394 ], [ -98.511139450258398, 29.403864365379814 ], [ -98.511284802198418, 29.403908846107033 ], [ -98.511424475275859, 29.403965587684887 ], [ -98.511557124398195, 29.40403404367752 ], [ -98.511681472108535, 29.404113554835341 ], [ -98.5117963208872, 29.404203355443212 ], [ -98.511900564683913, 29.404302580693688 ], [ -98.511993199569304, 29.404410275015124 ], [ -98.512073333403606, 29.404525401273169 ], [ -98.512140194428952, 29.404646850758368 ], [ -98.512193138702813, 29.404773453862827 ], [ -98.51223165630087, 29.404903991343446 ], [ -98.51225537622939, 29.40503720606349 ], [ -98.512264070000072, 29.405171815098971 ], [ -98.512257653832421, 29.405306522093749 ], [ -98.512236189462797, 29.405440029744017 ], [ -98.512199883551858, 29.405571052292157 ], [ -98.512149085696436, 29.405698327909395 ], [ -98.512084285064589, 29.405820630848403 ], [ -98.51200610568624, 29.405936783248492 ], [ -98.511915300444898, 29.40604566647945 ], [ -98.511812743827889, 29.406146231915564 ], [ -98.511699423505277, 29.406237511035098 ], [ -98.511576430818337, 29.406318624748575 ], [ -98.510475674714812, 29.406973000819438 ] ] ] } },
{ "type": "Feature", "properties": { "cluster": 1, "crashes": 2, "deaths": 0, "serious_injuries": 2, "first_year": 2021, "last_year": 2022, "affected_bicyclists": 2 }, "geometry": { "type": "Polygon", "coordinates": [ [ [ -98.597356398903784, 29.449868774704726 ], [ -98.597202547512026, 29.44986215928753 ], [ -98.597050177858662, 29.449842376936235 ], [ -98.59690075739951, 29.44980961817198 ], [ -98.596755725183854, 29.449764198489852 ], [ -98.59661647799382, 29.449706555319931 ], [ -98.59648435689094, 29.449637243814315 ], [ -98.5963606342996, 29.449556931499824 ], [ -98.596246501752034, 29.449466391848677 ], [ -98.596143058412423, 29.449366496828912 ], [ -98.596051300491297, 29.44925820850569 ], [ -98.595972111651591, 29.449142569775606 ], [ -98.595906254499141, 29.44902069432198 ], [ -98.595854363239354, 29.448893755888857 ], [ -98.595816937570845, 29.448762976976518 ], [ -98.595794337874665, 29.448629617067574 ], [ -98.595786781745502, 29.44849496049719 ], [ -98.595794341898156, 29.448360304083874 ], [ -98.59581694546938, 29.448226944640371 ], [ -98.595854374721711, 29.448096166484689 ], [ -98.59590626914239, 29.447969229071788 ], [ -98.595972128917154, 29.447847354864496 ], [ -98.596051319745456, 29.44773171756129 ], [ -98.59614307895032, 29.447623430793509 ], [ -98.596246522824458, 29.447523537401075 ], [ -98.596360655141396, 29.447432999390372 ], [ -98.59648437674997, 29.447352688670328 ], [ -98.596616496159427, 29.447283378656287 ], [ -98.596755741013624, 29.447225736822439 ], [ -98.596900770343439, 29.447180318274363 ], [ -98.597050187479738, 29.447147560403732 ], [ -98.597202553502441, 29.44712777867651 ], [ -98.597356401096178, 29.447121163595231 ], [ -98.597532688903598, 29.447121163595192 ], [ -98.597686536497335, 29.447127778676471 ], [ -98.597838902520053, 29.4471475604037 ], [ -98.597988319656366, 29.447180318274317 ], [ -98.598133348986181, 29.447225736822368 ], [ -98.598272593840377, 29.447283378656195 ], [ -98.598404713249849, 29.447352688670207 ], [ -98.598528434858437, 29.447432999390234 ], [ -98.598642567175403, 29.447523537400937 ], [ -98.598746011049542, 29.447623430793328 ], [ -98.59883777025442, 29.447731717561123 ], [ -98.598916961082736, 29.447847354864319 ], [ -98.598982820857529, 29.4479692290716 ], [ -98.599034715278222, 29.448096166484497 ], [ -98.599072144530581, 29.448226944640169 ], [ -98.599094748101834, 29.448360304083664 ], [ -98.599102308254501, 29.448494960496998 ], [ -98.599094752125353, 29.448629617067375 ], [ -98.599072152429187, 29.448762976976322 ], [ -98.599034726760692, 29.448893755888673 ], [ -98.598982835500934, 29.449020694321796 ], [ -98.598916978348512, 29.449142569775429 ], [ -98.598837789508821, 29.449258208505537 ], [ -98.598746031587709, 29.449366496828748 ], [ -98.598642588248111, 29.449466391848549 ], [ -98.59852845570056, 29.449556931499679 ], [ -98.598404733109234, 29.449637243814212 ], [ -98.598272612006355, 29.44970655531985 ], [ -98.598133364816334, 29.449764198489756 ], [ -98.597988332600693, 29.449809618171916 ], [ -98.597838912141526, 29.449842376936186 ], [ -98.597686542488191, 29.449862159287491 ], [ -98.597532691096433, 29.449868774704726 ], [ -98.597356398903784, 29.449868774704726 ] ] ] } },
{ "type": "Feature", "properties": { "cluster": 2, "crashes": 2, "deaths": 1, "serious_injuries": 1, "first_year": 2021, "last_year": 2026, "affected_bicyclists": 2 }, "geometry": { "type": "Polygon", "coordinates": [ [ [ -98.382997774978691, 29.547203472516227 ], [ -98.382856549128405, 29.547257547009998 ], [ -98.382709941549805, 29.547299257227372 ], [ -98.38255936419867, 29.547328201463351 ], [ -98.382406267267285, 29.54734410096005 ], [ -98.382252125216496, 29.547346802591559 ], [ -98.382098422573662, 29.547336280338804 ], [ -98.381946639633796, 29.547312635540219 ], [ -98.38179823820137, 29.547276095915624 ], [ -98.38165464751043, 29.547227013372861 ], [ -98.381517250458373, 29.547165860618346 ], [ -98.381387370286404, 29.547093226604051 ], [ -98.381266257834724, 29.547009810854846 ], [ -98.3811550794954, 29.546916416731104 ], [ -98.381054905978814, 29.546813943690925 ], [ -98.380966702002098, 29.546703378627068 ], [ -98.380891316998714, 29.546585786361874 ], [ -98.380829476938615, 29.54646229939161 ], [ -98.380781777337972, 29.546334106979216 ], [ -98.380748677525361, 29.546202443700466 ], [ -98.380730496219968, 29.546068577553736 ], [ -98.38072740846404, 29.545933797748337 ], [ -98.380739443939177, 29.545799402288278 ], [ -98.380766486682646, 29.545666685471993 ], [ -98.380808276206238, 29.545536925427459 ], [ -98.380864410006907, 29.545411371803571 ], [ -98.380934347444921, 29.545291233735629 ], [ -98.381017414951998, 29.545177668201436 ], [ -98.381112812519518, 29.54507176887947 ], [ -98.381219621403801, 29.544974555617088 ], [ -98.381336812974709, 29.544886964609496 ], [ -98.381463258621935, 29.544809839384552 ], [ -98.381597740623846, 29.544743922680041 ], [ -98.382962489182503, 29.544149958619297 ], [ -98.383103711003827, 29.544095883865349 ], [ -98.383250314177744, 29.54405417312357 ], [ -98.383400886880139, 29.544025228078485 ], [ -98.38355397906372, 29.544009327477596 ], [ -98.383708116420749, 29.544006624447341 ], [ -98.383861814579348, 29.544017145018472 ], [ -98.384013593396773, 29.544040787875545 ], [ -98.38416199121184, 29.544077325332388 ], [ -98.384305578919566, 29.544126405524601 ], [ -98.384442973732376, 29.544187555797794 ], [ -98.384572852495651, 29.544260187258956 ], [ -98.384693964429005, 29.544343600447011 ], [ -98.384805143171278, 29.544436992068455 ], [ -98.384905318012599, 29.544539462732512 ], [ -98.38499352420591, 29.544650025612125 ], [ -98.385068912258305, 29.544767615946597 ], [ -98.385130756112773, 29.544891101295232 ], [ -98.385178460141788, 29.545019292442504 ], [ -98.385211564884855, 29.545150954850353 ], [ -98.385229751475052, 29.545284820546893 ], [ -98.385232844711936, 29.545419600337326 ], [ -98.385220814750781, 29.545553996219539 ], [ -98.385193777392132, 29.545686713884287 ], [ -98.385151992968744, 29.54581647518043 ], [ -98.385095863840377, 29.545942030424495 ], [ -98.385025930520627, 29.546062170436112 ], [ -98.384942866473111, 29.546175738183813 ], [ -98.38484747162687, 29.54628163992842 ], [ -98.384740664673458, 29.546378855757236 ], [ -98.384623474220049, 29.546466449406992 ], [ -98.384497028883331, 29.546543577281629 ], [ -98.384362546420107, 29.546609496577155 ], [ -98.382997774978691, 29.547203472516227 ] ] ] } },
{ "type": "Feature", "properties": { "cluster": 3, "crashes": 2, "deaths": 1, "serious_injuries": 1, "first_year": 2021, "last_year": 2025, "affected_bicyclists": 2 }, "geometry": { "type": "Polygon", "coordinates": [ [ [ -98.526895678955256, 29.399737550954942 ], [ -98.526809657479049, 29.399625731431744 ], [ -98.526736566729284, 29.399507066990108 ], [ -98.52667711057957, 29.399382700451696 ], [ -98.526631861586509, 29.399253829549718 ], [ -98.526601255477104, 29.399121695393664 ], [ -98.526585586954184, 29.398987570516123 ], [ -98.526585006860302, 29.398852746617393 ], [ -98.52659952072699, 29.398718522125534 ], [ -98.526628988723729, 29.398586189691613 ], [ -98.526673127006575, 29.398457023741209 ], [ -98.526731510453715, 29.398332268201081 ], [ -98.526803576761424, 29.398213124519973 ], [ -98.526888631860828, 29.398100740098705 ], [ -98.526985856603361, 29.39799619724068 ], [ -98.527094314650483, 29.397900502729442 ], [ -98.527212961491472, 29.397814578133683 ], [ -98.527340654502723, 29.397739250932908 ], [ -98.527476163951448, 29.397675246549074 ], [ -98.527618184837792, 29.397623181361208 ], [ -98.527765349461617, 29.397583556770016 ], [ -98.527916240592717, 29.39755675436977 ], [ -98.528069405117691, 29.397543032273784 ], [ -98.528223368032371, 29.397542522628907 ], [ -98.528376646644773, 29.397555230343134 ], [ -98.528527764852143, 29.397581033038335 ], [ -98.528675267354544, 29.397619682228612 ], [ -98.528817733668262, 29.397670805713062 ], [ -98.528953791804042, 29.397733911159861 ], [ -98.529082131478603, 29.397808390847079 ], [ -98.529201516732172, 29.397893527514555 ], [ -98.529310797830632, 29.397988501271033 ], [ -98.52940892233768, 29.398092397489055 ], [ -98.529562043237547, 29.398271766284498 ], [ -98.529648066444778, 29.398383584298845 ], [ -98.529721159577775, 29.398502247381852 ], [ -98.529780618679453, 29.398626612761337 ], [ -98.529825871087567, 29.398755482746211 ], [ -98.529856480951111, 29.398887616260261 ], [ -98.529872153429665, 29.399021740794016 ], [ -98.529872737534788, 29.399156564659286 ], [ -98.529858227586161, 29.399290789428722 ], [ -98.529828763268441, 29.399423122440318 ], [ -98.529784628288098, 29.399552289246696 ], [ -98.529726247643097, 29.399677045888907 ], [ -98.529654183531761, 29.399796190877076 ], [ -98.529569129939915, 29.399908576761806 ], [ -98.529471905958701, 29.400013121185602 ], [ -98.529363447897055, 29.400108817307178 ], [ -98.529244800264976, 29.40019474349884 ], [ -98.529117105714363, 29.400270072223034 ], [ -98.528981594034207, 29.400334078002807 ], [ -98.528839570306317, 29.40038614440931 ], [ -98.52869240233548, 29.400425769999138 ], [ -98.528541507475239, 29.400452573143948 ], [ -98.528388338976313, 29.400466295706341 ], [ -98.528234371988958, 29.400466805526154 ], [ -98.528081089354515, 29.400454097693348 ], [ -98.527929967322621, 29.400428294595397 ], [ -98.527782461332094, 29.400389644738397 ], [ -98.527639991992245, 29.400338520353571 ], [ -98.52750393139992, 29.400275413811915 ], [ -98.527375589923963, 29.40020093288194 ], [ -98.527256203584386, 29.400115794875745 ], [ -98.527146922148063, 29.40002081974017 ], [ -98.527048798055333, 29.399916922159402 ], [ -98.526895678955256, 29.399737550954942 ] ] ] } },
{ "type": "Feature", "properties": { "cluster": 4, "crashes": 3, "deaths": 0, "serious_injuries": 3, "first_year": 2022, "last_year": 2024, "affected_bicyclists": 3 }, "geometry": { "type": "Polygon", "coordinates": [ [ [ -98.517519131424137, 29.355228910004858 ], [ -98.517672474955319, 29.355228741330663 ], [ -98.517825104302901, 29.355241692815767 ], [ -98.517975560320863, 29.355267640642779 ], [ -98.51812240463812, 29.355306336748029 ], [ -98.518264233407905, 29.35535741119261 ], [ -98.518399690727492, 29.355420375698962 ], [ -98.518527481599662, 29.355494628318329 ], [ -98.518646384312234, 29.355579459184991 ], [ -98.518755262117324, 29.355674057301972 ], [ -98.518853074098772, 29.35577751829393 ], [ -98.518938885123617, 29.35588885305231 ], [ -98.519011874782805, 29.356006997190946 ], [ -98.519071345235403, 29.356130821221321 ], [ -98.519116727881325, 29.356259141350119 ], [ -98.519147588798944, 29.356390730796196 ], [ -98.519163632895143, 29.356524331518873 ], [ -98.51916470672856, 29.356658666244659 ], [ -98.519150799978476, 29.356792450678569 ], [ -98.519122045545629, 29.356924405782493 ], [ -98.519078718283623, 29.357053270003362 ], [ -98.519021232373234, 29.357177811334488 ], [ -98.518950137364286, 29.357296839094534 ], [ -98.518866112923291, 29.357409215311371 ], [ -98.518769962336776, 29.357513865602403 ], [ -98.518662604832286, 29.357609789446709 ], [ -98.518545066790679, 29.357696069751306 ], [ -98.518418471933558, 29.357771881619787 ], [ -98.518284030579622, 29.357836500239387 ], [ -98.518143028072799, 29.357889307811391 ], [ -98.517996812492683, 29.357929799457995 ], [ -98.517846781764959, 29.357957588050102 ], [ -98.517694370294905, 29.357972407908584 ], [ -98.516378904040522, 29.358043518705571 ], [ -98.516285566681503, 29.358046123604701 ], [ -98.51597107277324, 29.358046693611087 ], [ -98.515819679748731, 29.358040552773524 ], [ -98.515669670236903, 29.358021639206264 ], [ -98.51552244511187, 29.357990129534503 ], [ -98.515379379242674, 29.357946318012448 ], [ -98.515241808652803, 29.357890613775208 ], [ -98.515111018042418, 29.357823537017758 ], [ -98.514988228790386, 29.357745714136598 ], [ -98.514874587547737, 29.357657871879617 ], [ -98.514771155529331, 29.357560830558899 ], [ -98.514678898603833, 29.357455496389601 ], [ -98.514598678274254, 29.357342853026704 ], [ -98.514531243633584, 29.357223952378874 ], [ -98.514477224370452, 29.357099904784558 ], [ -98.514437124890108, 29.356971868642894 ], [ -98.514411319605628, 29.356841039595718 ], [ -98.514400049443267, 29.356708639362136 ], [ -98.514403419594487, 29.356575904329326 ], [ -98.514421398535532, 29.356444074007001 ], [ -98.514453818323801, 29.356314379452467 ], [ -98.514500376168073, 29.35618803177492 ], [ -98.51456063725773, 29.356066210826206 ], [ -98.514634038824809, 29.355950054183513 ], [ -98.514719895400489, 29.355840646526946 ], [ -98.514817405217315, 29.355739009511176 ], [ -98.514925657696892, 29.355646092225893 ], [ -98.515043641953469, 29.355562762333484 ], [ -98.515170256233787, 29.355489797967525 ], [ -98.515304318205025, 29.355427880467133 ], [ -98.515444575995048, 29.35537758801518 ], [ -98.515589719881447, 29.355339390239681 ], [ -98.515738394520682, 29.355313643828918 ], [ -98.515889211602996, 29.355300589200933 ], [ -98.517519131424137, 29.355228910004858 ] ] ] } },
{ "type": "Feature", "properties": { "cluster": 5, "crashes": 2, "deaths": 1, "serious_injuries": 1, "first_year": 2023, "last_year": 2025, "affected_bicyclists": 2 }, "geometry": { "type": "Polygon", "coordinates": [ [ [ -98.36860873951386, 29.508840254019749 ], [ -98.368522977546988, 29.508728243085276 ], [ -98.36845018010888, 29.508609418419645 ], [ -98.368391048248128, 29.508484924387343 ], [ -98.368346151397944, 29.508355959949334 ], [ -98.368315921893739, 29.50822376711573 ], [ -98.36830065081125, 29.508089618984123 ], [ -98.36830048516525, 29.507954807478647 ], [ -98.368315426495855, 29.507820630907837 ], [ -98.368345330855732, 29.507688381461207 ], [ -98.368389910198545, 29.50755933276503 ], [ -98.368448735154928, 29.507434727616705 ], [ -98.368521239169297, 29.507315766016706 ], [ -98.368606723957598, 29.507203593612228 ], [ -98.368704366233388, 29.507099290664883 ], [ -98.368813225637282, 29.507003861647767 ], [ -98.368932253793602, 29.506918225572818 ], [ -98.369060304406773, 29.506843207141021 ], [ -98.369196144300403, 29.506779528800752 ], [ -98.369338465292614, 29.506727803791268 ], [ -98.36948589679335, 29.506688530237291 ], [ -98.369637019002468, 29.506662086352517 ], [ -98.369790376581406, 29.506648726797703 ], [ -98.369944492666946, 29.506648580228354 ], [ -98.370097883092086, 29.506661648055978 ], [ -98.370249070677303, 29.506687804434467 ], [ -98.370396599454509, 29.506726797471824 ], [ -98.370539048686894, 29.506778251655764 ], [ -98.370675046549536, 29.506841671469708 ], [ -98.370803283339455, 29.506916446164144 ], [ -98.370922524087462, 29.507001855637942 ], [ -98.371031620450864, 29.507097077372393 ], [ -98.371129521772161, 29.507201194351811 ], [ -98.371527424164128, 29.507669421228549 ], [ -98.371613188356932, 29.507781430486055 ], [ -98.371685988653638, 29.507900253646159 ], [ -98.37174512391708, 29.508024746394891 ], [ -98.371790024603385, 29.508153709814398 ], [ -98.371820258248633, 29.508285901928545 ], [ -98.371835533635348, 29.508420049663339 ], [ -98.371835703599132, 29.508554861107022 ], [ -98.371820766447968, 29.508689037951786 ], [ -98.371790865980643, 29.508821287997048 ], [ -98.371746290104028, 29.508950337594296 ], [ -98.371687468062206, 29.509074943913426 ], [ -98.371614966304534, 29.509193906912152 ], [ -98.371529483031779, 29.509306080893765 ], [ -98.371431841473409, 29.509410385541443 ], [ -98.371322981960091, 29.509505816323198 ], [ -98.371203952868342, 29.509591454166799 ], [ -98.371075900524019, 29.509666474311654 ], [ -98.370940058162205, 29.509730154252725 ], [ -98.370797734049646, 29.509781880699347 ], [ -98.370650298884286, 29.5098211554822 ], [ -98.370499172593142, 29.509847600351534 ], [ -98.370345810655948, 29.509860960620482 ], [ -98.370191690086102, 29.5098611076181 ], [ -98.370038295204068, 29.509848039928638 ], [ -98.369887103340588, 29.509821883405298 ], [ -98.369739570606939, 29.509782889957915 ], [ -98.369597117869958, 29.509731435126731 ], [ -98.36946111706645, 29.509668014465195 ], [ -98.369332877989251, 29.509593238766961 ], [ -98.369213635672011, 29.509507828182858 ], [ -98.369104538494298, 29.509412605284798 ], [ -98.3690066371217, 29.509308487142935 ], [ -98.36860873951386, 29.508840254019749 ] ] ] } }
]
}
